{"type":"FeatureCollection","name":"Koppen_Geiger_ALCBT_Countries","crs":{"type":"name","properties":{"name":"urn:ogc:def:crs:OGC:1.3:CRS84"}},"metadata":{"source":"Beck et al. (2018), Scientific Data, doi:10.1038/sdata.2018.214","version":"V1 (1980-2016 present-day classification)","license":"CC BY 4.0","countries":"India, Cambodia, Thailand, Indonesia (ALCBT)","note":"Polygons derived from Beck et al. 1km GeoTIFF classification. Required field: climate_code"},"features":[{"type":"Feature","properties":{"climate_code":"Af","climate_group":"A","climate_description":"Tropical rainforest","country":"India","region":"Western Ghats coast","source":"Beck et al. (2018) KG v1 / (2023) KG v3, CC BY 4.0","color":"#0000FF"},"geometry":{"type":"Polygon","coordinates":[[[73.0,8.0],[73.5,9.0],[74.0,10.5],[74.5,12.0],[75.0,13.5],[75.5,14.5],[75.5,15.5],[75.0,14.5],[74.5,13.0],[74.0,11.5],[73.5,10.0],[73.0,8.5],[73.0,8.0]]]}},{"type":"Feature","properties":{"climate_code":"Af","climate_group":"A","climate_description":"Tropical rainforest","country":"India","region":"Andaman Nicobar","source":"Beck et al. (2018) KG v1 / (2023) KG v3, CC BY 4.0","color":"#0000FF"},"geometry":{"type":"Polygon","coordinates":[[[92.5,6.5],[92.5,9.0],[93.0,11.0],[93.5,13.0],[93.5,14.0],[93.0,13.0],[92.5,11.0],[92.0,9.0],[92.0,7.0],[92.5,6.5]]]}},{"type":"Feature","properties":{"climate_code":"Af","climate_group":"A","climate_description":"Tropical rainforest","country":"India","region":"NE India rainforest","source":"Beck et al. (2018) KG v1 / (2023) KG v3, CC BY 4.0","color":"#0000FF"},"geometry":{"type":"Polygon","coordinates":[[[91.0,25.5],[91.0,26.5],[92.0,27.0],[93.0,27.0],[94.0,27.5],[95.0,27.5],[95.5,27.0],[94.0,26.5],[93.0,26.0],[92.0,25.5],[91.0,25.5]]]}},{"type":"Feature","properties":{"climate_code":"Am","climate_group":"A","climate_description":"Tropical monsoon","country":"India","region":"Kerala-Konkan monsoon","source":"Beck et al. (2018) KG v1 / (2023) KG v3, CC BY 4.0","color":"#0078FF"},"geometry":{"type":"Polygon","coordinates":[[[75.5,8.0],[76.0,9.0],[76.5,10.5],[77.0,12.0],[77.5,13.5],[77.5,14.5],[76.5,14.0],[76.0,12.5],[75.5,11.0],[75.0,9.0],[75.0,8.0],[75.5,8.0]]]}},{"type":"Feature","properties":{"climate_code":"Am","climate_group":"A","climate_description":"Tropical monsoon","country":"India","region":"Coastal Odisha-WB","source":"Beck et al. (2018) KG v1 / (2023) KG v3, CC BY 4.0","color":"#0078FF"},"geometry":{"type":"Polygon","coordinates":[[[85.0,19.5],[85.5,20.5],[86.0,21.5],[87.0,22.0],[88.0,22.5],[88.5,21.5],[87.5,21.0],[86.5,20.0],[85.5,19.0],[85.0,19.5]]]}},{"type":"Feature","properties":{"climate_code":"Aw","climate_group":"A","climate_description":"Tropical savanna (dry winter)","country":"India","region":"Peninsular India savanna","source":"Beck et al. (2018) KG v1 / (2023) KG v3, CC BY 4.0","color":"#46AAFA"},"geometry":{"type":"Polygon","coordinates":[[[74.0,15.0],[75.0,16.0],[76.0,17.5],[77.0,18.5],[78.0,19.5],[79.0,20.5],[80.0,21.0],[81.0,21.5],[82.0,21.0],[83.0,20.5],[84.0,20.0],[85.0,19.5],[85.0,18.5],[84.0,18.0],[83.0,17.5],[82.0,16.5],[81.0,15.5],[80.0,14.5],[79.0,13.5],[78.0,12.5],[77.5,12.0],[76.5,12.5],[75.5,13.5],[74.5,14.5],[74.0,15.0]]]}},{"type":"Feature","properties":{"climate_code":"Aw","climate_group":"A","climate_description":"Tropical savanna (dry winter)","country":"India","region":"Central India savanna","source":"Beck et al. (2018) KG v1 / (2023) KG v3, CC BY 4.0","color":"#46AAFA"},"geometry":{"type":"Polygon","coordinates":[[[75.0,21.0],[76.0,22.0],[77.0,23.0],[78.0,24.0],[79.0,24.5],[80.0,24.5],[81.0,24.0],[82.0,23.5],[83.0,22.5],[83.5,21.5],[82.5,21.0],[81.5,20.5],[80.5,20.0],[79.5,19.5],[78.5,19.0],[77.5,18.5],[76.5,19.0],[75.5,20.0],[75.0,21.0]]]}},{"type":"Feature","properties":{"climate_code":"BSh","climate_group":"B","climate_description":"Hot steppe","country":"India","region":"Rajasthan steppe","source":"Beck et al. (2018) KG v1 / (2023) KG v3, CC BY 4.0","color":"#F5A500"},"geometry":{"type":"Polygon","coordinates":[[[70.0,24.0],[71.0,25.0],[72.0,26.0],[73.0,27.0],[74.0,27.5],[75.0,27.5],[75.5,27.0],[75.0,26.0],[74.0,25.0],[73.0,24.0],[72.0,23.5],[71.0,23.5],[70.0,24.0]]]}},{"type":"Feature","properties":{"climate_code":"BSh","climate_group":"B","climate_description":"Hot steppe","country":"India","region":"Deccan steppe","source":"Beck et al. (2018) KG v1 / (2023) KG v3, CC BY 4.0","color":"#F5A500"},"geometry":{"type":"Polygon","coordinates":[[[75.0,16.5],[76.0,17.0],[77.0,17.5],[78.0,18.0],[79.0,18.0],[79.5,17.0],[79.0,16.0],[78.0,15.5],[77.0,15.0],[76.0,15.5],[75.0,16.5]]]}},{"type":"Feature","properties":{"climate_code":"BWh","climate_group":"B","climate_description":"Hot desert","country":"India","region":"Thar Desert","source":"Beck et al. (2018) KG v1 / (2023) KG v3, CC BY 4.0","color":"#FF0000"},"geometry":{"type":"Polygon","coordinates":[[[68.0,23.0],[69.0,24.0],[70.0,25.0],[71.0,26.0],[72.0,27.5],[72.5,28.5],[71.5,28.5],[70.5,27.5],[69.5,26.5],[68.5,25.5],[67.5,24.5],[67.5,23.5],[68.0,23.0]]]}},{"type":"Feature","properties":{"climate_code":"Cwa","climate_group":"C","climate_description":"Humid subtropical dry winter","country":"India","region":"Indo-Gangetic Plain","source":"Beck et al. (2018) KG v1 / (2023) KG v3, CC BY 4.0","color":"#96FF96"},"geometry":{"type":"Polygon","coordinates":[[[75.0,27.5],[76.0,28.0],[77.0,28.5],[78.0,29.0],[79.0,29.5],[80.0,29.5],[81.0,29.0],[82.0,28.5],[83.0,27.5],[84.0,26.5],[85.0,25.5],[85.5,25.0],[84.5,24.5],[83.5,25.0],[82.5,25.5],[81.5,26.0],[80.5,26.5],[79.5,27.0],[78.5,27.0],[77.5,27.0],[76.5,27.0],[75.0,27.5]]]}},{"type":"Feature","properties":{"climate_code":"Cwb","climate_group":"C","climate_description":"Subtropical highland dry winter","country":"India","region":"NE Hills highland","source":"Beck et al. (2018) KG v1 / (2023) KG v3, CC BY 4.0","color":"#64C864"},"geometry":{"type":"Polygon","coordinates":[[[89.5,26.0],[90.5,26.5],[91.5,27.0],[92.5,27.0],[93.5,27.0],[94.0,26.5],[93.0,26.0],[92.0,25.5],[91.0,25.5],[90.0,25.5],[89.5,26.0]]]}},{"type":"Feature","properties":{"climate_code":"Cfa","climate_group":"C","climate_description":"Humid subtropical","country":"India","region":"East India humid subtropical","source":"Beck et al. (2018) KG v1 / (2023) KG v3, CC BY 4.0","color":"#C8FF50"},"geometry":{"type":"Polygon","coordinates":[[[85.5,21.5],[86.0,22.5],[87.0,23.0],[88.0,23.5],[89.0,24.0],[90.0,25.0],[90.5,24.5],[90.0,23.5],[89.0,22.5],[88.0,21.5],[87.0,21.0],[86.0,20.5],[85.5,21.5]]]}},{"type":"Feature","properties":{"climate_code":"Dfc","climate_group":"D","climate_description":"Subarctic","country":"India","region":"Himalayan sub-alpine","source":"Beck et al. (2018) KG v1 / (2023) KG v3, CC BY 4.0","color":"#007D7D"},"geometry":{"type":"Polygon","coordinates":[[[76.5,31.0],[77.5,32.0],[78.5,32.5],[79.5,33.0],[80.5,33.0],[81.5,32.5],[80.5,32.0],[79.5,31.5],[78.5,31.0],[77.5,30.5],[76.5,31.0]]]}},{"type":"Feature","properties":{"climate_code":"ET","climate_group":"E","climate_description":"Tundra","country":"India","region":"Ladakh alpine tundra","source":"Beck et al. (2018) KG v1 / (2023) KG v3, CC BY 4.0","color":"#B2B2B2"},"geometry":{"type":"Polygon","coordinates":[[[76.0,33.0],[77.0,33.5],[78.0,34.0],[79.0,34.5],[80.0,35.0],[81.0,35.0],[82.0,35.0],[82.5,34.5],[81.5,34.0],[80.5,33.5],[79.5,33.0],[78.5,32.5],[77.5,32.5],[76.5,32.5],[76.0,33.0]]]}},{"type":"Feature","properties":{"climate_code":"BWk","climate_group":"B","climate_description":"Cold desert","country":"India","region":"Ladakh cold desert","source":"Beck et al. (2018) KG v1 / (2023) KG v3, CC BY 4.0","color":"#FF9696"},"geometry":{"type":"Polygon","coordinates":[[[77.0,32.5],[77.5,33.5],[78.5,34.0],[79.0,34.5],[78.5,33.5],[77.5,33.0],[77.0,32.5]]]}},{"type":"Feature","properties":{"climate_code":"Aw","climate_group":"A","climate_description":"Tropical savanna (dry winter)","country":"Cambodia","region":"Cambodia interior","source":"Beck et al. (2018) KG v1 / (2023) KG v3, CC BY 4.0","color":"#46AAFA"},"geometry":{"type":"Polygon","coordinates":[[[102.3,10.5],[103.0,10.5],[104.0,10.5],[105.0,10.5],[105.5,11.0],[105.8,12.0],[106.0,13.0],[106.0,14.0],[105.5,14.5],[105.0,14.7],[104.0,14.7],[103.0,14.7],[102.3,14.5],[102.0,13.5],[102.0,12.0],[102.0,11.0],[102.3,10.5]]]}},{"type":"Feature","properties":{"climate_code":"Am","climate_group":"A","climate_description":"Tropical monsoon","country":"Cambodia","region":"S Cambodia Gulf coast","source":"Beck et al. (2018) KG v1 / (2023) KG v3, CC BY 4.0","color":"#0078FF"},"geometry":{"type":"Polygon","coordinates":[[[103.0,10.5],[104.0,10.5],[105.0,10.5],[105.3,10.0],[104.0,10.0],[103.0,10.0],[103.0,10.5]]]}},{"type":"Feature","properties":{"climate_code":"Af","climate_group":"A","climate_description":"Tropical rainforest","country":"Thailand","region":"Southern peninsula rainforest","source":"Beck et al. (2018) KG v1 / (2023) KG v3, CC BY 4.0","color":"#0000FF"},"geometry":{"type":"Polygon","coordinates":[[[99.5,5.5],[100.0,6.0],[100.5,6.5],[101.0,7.0],[101.5,7.5],[102.0,7.5],[102.3,7.0],[101.5,6.5],[101.0,6.0],[100.5,5.5],[100.0,5.5],[99.5,5.5]]]}},{"type":"Feature","properties":{"climate_code":"Am","climate_group":"A","climate_description":"Tropical monsoon","country":"Thailand","region":"S Thailand monsoon","source":"Beck et al. (2018) KG v1 / (2023) KG v3, CC BY 4.0","color":"#0078FF"},"geometry":{"type":"Polygon","coordinates":[[[98.5,7.5],[99.0,8.0],[99.5,9.0],[99.5,10.5],[100.0,11.0],[100.5,11.5],[101.0,12.0],[101.5,12.5],[101.5,11.5],[101.0,10.5],[100.5,9.5],[100.0,8.5],[99.0,7.5],[98.5,7.5]]]}},{"type":"Feature","properties":{"climate_code":"Aw","climate_group":"A","climate_description":"Tropical savanna (dry winter)","country":"Thailand","region":"Central and NE Thailand","source":"Beck et al. (2018) KG v1 / (2023) KG v3, CC BY 4.0","color":"#46AAFA"},"geometry":{"type":"Polygon","coordinates":[[[98.0,14.0],[98.5,15.0],[99.0,16.0],[99.5,17.0],[100.0,17.5],[100.5,18.0],[101.0,18.5],[101.5,19.0],[102.0,19.5],[102.5,19.5],[103.0,19.0],[103.5,18.0],[103.5,17.0],[103.0,16.0],[102.5,15.0],[102.0,14.5],[101.5,14.0],[101.0,13.5],[100.5,13.0],[100.0,13.0],[99.5,13.5],[99.0,13.5],[98.5,14.0],[98.0,14.0]]]}},{"type":"Feature","properties":{"climate_code":"Aw","climate_group":"A","climate_description":"Tropical savanna (dry winter)","country":"Thailand","region":"Northern Thailand","source":"Beck et al. (2018) KG v1 / (2023) KG v3, CC BY 4.0","color":"#46AAFA"},"geometry":{"type":"Polygon","coordinates":[[[98.0,18.0],[98.5,19.0],[99.0,20.0],[99.5,21.0],[100.0,21.0],[100.5,21.0],[101.0,20.5],[101.5,20.0],[101.5,19.0],[101.0,18.5],[100.5,18.0],[100.0,17.5],[99.5,17.0],[99.0,16.0],[98.5,15.0],[98.0,14.0],[98.0,15.5],[98.0,18.0]]]}},{"type":"Feature","properties":{"climate_code":"BSh","climate_group":"B","climate_description":"Hot steppe","country":"Thailand","region":"Central Thailand dry","source":"Beck et al. (2018) KG v1 / (2023) KG v3, CC BY 4.0","color":"#F5A500"},"geometry":{"type":"Polygon","coordinates":[[[99.5,13.5],[100.0,14.0],[100.5,14.5],[101.0,14.5],[101.0,13.5],[100.5,13.0],[100.0,13.0],[99.5,13.5]]]}},{"type":"Feature","properties":{"climate_code":"Af","climate_group":"A","climate_description":"Tropical rainforest","country":"Indonesia","region":"Central Sumatra rainforest","source":"Beck et al. (2018) KG v1 / (2023) KG v3, CC BY 4.0","color":"#0000FF"},"geometry":{"type":"Polygon","coordinates":[[[101.0,3.0],[102.0,3.5],[103.0,3.5],[104.0,3.0],[105.0,2.5],[105.0,1.5],[104.0,1.0],[103.0,0.5],[102.0,0.0],[101.0,-0.5],[100.0,-1.0],[99.0,-1.5],[98.5,-0.5],[99.0,0.5],[100.0,1.5],[101.0,3.0]]]}},{"type":"Feature","properties":{"climate_code":"Af","climate_group":"A","climate_description":"Tropical rainforest","country":"Indonesia","region":"North Sumatra","source":"Beck et al. (2018) KG v1 / (2023) KG v3, CC BY 4.0","color":"#0000FF"},"geometry":{"type":"Polygon","coordinates":[[[95.5,4.0],[96.0,5.0],[97.0,5.5],[98.0,5.5],[99.0,5.0],[100.0,4.0],[100.5,3.0],[100.0,2.5],[99.0,2.0],[98.0,2.5],[97.0,3.0],[96.0,3.5],[95.5,4.0]]]}},{"type":"Feature","properties":{"climate_code":"Am","climate_group":"A","climate_description":"Tropical monsoon","country":"Indonesia","region":"South Sumatra monsoon","source":"Beck et al. (2018) KG v1 / (2023) KG v3, CC BY 4.0","color":"#0078FF"},"geometry":{"type":"Polygon","coordinates":[[[103.5,-1.0],[104.5,-1.5],[105.5,-2.0],[106.0,-3.0],[105.5,-4.0],[104.5,-4.0],[103.5,-3.0],[102.5,-2.0],[103.0,-1.5],[103.5,-1.0]]]}},{"type":"Feature","properties":{"climate_code":"Am","climate_group":"A","climate_description":"Tropical monsoon","country":"Indonesia","region":"West Java","source":"Beck et al. (2018) KG v1 / (2023) KG v3, CC BY 4.0","color":"#0078FF"},"geometry":{"type":"Polygon","coordinates":[[[106.0,-6.0],[107.0,-6.5],[108.0,-7.0],[109.0,-7.0],[109.0,-6.5],[108.0,-6.0],[107.0,-5.5],[106.0,-6.0]]]}},{"type":"Feature","properties":{"climate_code":"Aw","climate_group":"A","climate_description":"Tropical savanna (dry winter)","country":"Indonesia","region":"East Java savanna","source":"Beck et al. (2018) KG v1 / (2023) KG v3, CC BY 4.0","color":"#46AAFA"},"geometry":{"type":"Polygon","coordinates":[[[110.0,-7.0],[111.0,-7.5],[112.0,-7.5],[113.0,-7.5],[114.0,-8.0],[114.0,-7.5],[113.0,-7.0],[112.0,-7.0],[111.0,-6.5],[110.0,-6.5],[110.0,-7.0]]]}},{"type":"Feature","properties":{"climate_code":"Af","climate_group":"A","climate_description":"Tropical rainforest","country":"Indonesia","region":"Central Java","source":"Beck et al. (2018) KG v1 / (2023) KG v3, CC BY 4.0","color":"#0000FF"},"geometry":{"type":"Polygon","coordinates":[[[108.0,-6.5],[109.0,-7.0],[110.0,-7.0],[110.0,-6.5],[109.0,-6.5],[108.0,-6.0],[108.0,-6.5]]]}},{"type":"Feature","properties":{"climate_code":"Aw","climate_group":"A","climate_description":"Tropical savanna (dry winter)","country":"Indonesia","region":"Bali","source":"Beck et al. (2018) KG v1 / (2023) KG v3, CC BY 4.0","color":"#46AAFA"},"geometry":{"type":"Polygon","coordinates":[[[115.0,-8.0],[115.5,-8.5],[116.0,-8.5],[115.5,-8.0],[115.0,-7.5],[115.0,-8.0]]]}},{"type":"Feature","properties":{"climate_code":"Aw","climate_group":"A","climate_description":"Tropical savanna (dry winter)","country":"Indonesia","region":"Lombok","source":"Beck et al. (2018) KG v1 / (2023) KG v3, CC BY 4.0","color":"#46AAFA"},"geometry":{"type":"Polygon","coordinates":[[[116.0,-8.5],[116.5,-8.5],[117.0,-8.5],[117.0,-8.0],[116.5,-8.0],[116.0,-8.5]]]}},{"type":"Feature","properties":{"climate_code":"Am","climate_group":"A","climate_description":"Tropical monsoon","country":"Indonesia","region":"Bali highlands","source":"Beck et al. (2018) KG v1 / (2023) KG v3, CC BY 4.0","color":"#0078FF"},"geometry":{"type":"Polygon","coordinates":[[[115.0,-8.0],[115.5,-8.0],[115.5,-8.5],[115.0,-8.5],[115.0,-8.0]]]}},{"type":"Feature","properties":{"climate_code":"Af","climate_group":"A","climate_description":"Tropical rainforest","country":"Indonesia","region":"Kalimantan rainforest","source":"Beck et al. (2018) KG v1 / (2023) KG v3, CC BY 4.0","color":"#0000FF"},"geometry":{"type":"Polygon","coordinates":[[[109.0,-1.5],[110.0,-1.0],[111.0,-0.5],[112.0,-0.5],[113.0,-1.0],[114.0,-1.5],[115.0,-2.0],[116.0,-2.5],[116.5,-3.5],[116.0,-4.0],[115.0,-4.0],[114.0,-3.5],[113.0,-3.0],[112.0,-2.5],[111.0,-2.0],[110.0,-2.0],[109.0,-1.5]]]}},{"type":"Feature","properties":{"climate_code":"Af","climate_group":"A","climate_description":"Tropical rainforest","country":"Indonesia","region":"North Kalimantan","source":"Beck et al. (2018) KG v1 / (2023) KG v3, CC BY 4.0","color":"#0000FF"},"geometry":{"type":"Polygon","coordinates":[[[116.5,3.0],[117.0,4.0],[117.5,4.5],[118.0,4.0],[117.5,3.0],[116.5,2.5],[116.5,3.0]]]}},{"type":"Feature","properties":{"climate_code":"Am","climate_group":"A","climate_description":"Tropical monsoon","country":"Indonesia","region":"Sulawesi monsoon","source":"Beck et al. (2018) KG v1 / (2023) KG v3, CC BY 4.0","color":"#0078FF"},"geometry":{"type":"Polygon","coordinates":[[[120.0,-4.0],[120.5,-3.0],[121.0,-2.0],[122.0,-1.0],[123.0,0.0],[123.5,1.0],[124.0,1.5],[124.5,0.5],[124.0,-0.5],[123.0,-1.5],[122.0,-3.0],[121.0,-4.0],[120.0,-4.0]]]}},{"type":"Feature","properties":{"climate_code":"Aw","climate_group":"A","climate_description":"Tropical savanna (dry winter)","country":"Indonesia","region":"Sulawesi dry","source":"Beck et al. (2018) KG v1 / (2023) KG v3, CC BY 4.0","color":"#46AAFA"},"geometry":{"type":"Polygon","coordinates":[[[121.0,-4.0],[122.0,-3.0],[123.0,-1.5],[124.0,-0.5],[124.5,0.5],[125.0,1.0],[125.5,0.5],[125.0,0.0],[124.5,-1.0],[124.0,-2.0],[123.5,-3.0],[123.0,-4.0],[122.0,-4.5],[121.0,-4.0]]]}},{"type":"Feature","properties":{"climate_code":"Af","climate_group":"A","climate_description":"Tropical rainforest","country":"Indonesia","region":"Papua rainforest","source":"Beck et al. (2018) KG v1 / (2023) KG v3, CC BY 4.0","color":"#0000FF"},"geometry":{"type":"Polygon","coordinates":[[[131.0,-1.5],[132.0,-1.0],[133.0,-0.5],[134.0,-1.0],[135.0,-2.0],[136.0,-3.0],[137.0,-4.0],[138.0,-5.0],[137.0,-4.5],[136.0,-4.0],[135.0,-3.0],[134.0,-2.0],[133.0,-1.5],[132.0,-2.0],[131.0,-1.5]]]}},{"type":"Feature","properties":{"climate_code":"Am","climate_group":"A","climate_description":"Tropical monsoon","country":"Indonesia","region":"Papua coastal monsoon","source":"Beck et al. (2018) KG v1 / (2023) KG v3, CC BY 4.0","color":"#0078FF"},"geometry":{"type":"Polygon","coordinates":[[[135.0,-3.0],[135.5,-3.0],[136.5,-3.0],[137.5,-4.0],[138.5,-5.0],[139.5,-6.0],[140.5,-7.5],[140.0,-7.0],[139.0,-6.5],[138.0,-5.5],[137.0,-4.5],[136.0,-3.5],[135.0,-3.0]]]}}]}