{"type":"FeatureCollection","name":"SEA_Seismic_Hazard_Zones_PSHA","crs":{"type":"name","properties":{"name":"urn:ogc:def:crs:OGC:1.3:CRS84"}},"features":[{"type":"Feature","properties":{"zone":"Low","zone_code":"LOW","country":"Cambodia","region":"Cambodia_Low","pga_range":"<0.05g","return_period_yr":"475","source":"GEM OpenQuake SEA PSHA v2018.1","color":"#00BFFF"},"geometry":{"type":"Polygon","coordinates":[[[102.3,13.7],[102.3,14.7],[103.1,14.7],[103.5,14.3],[104.0,14.3],[104.5,14.0],[105.0,14.0],[105.5,13.5],[105.8,13.0],[105.5,12.5],[105.0,12.0],[104.5,11.5],[104.0,11.0],[103.5,10.8],[103.0,10.8],[102.5,11.0],[102.3,11.5],[102.3,12.5],[102.3,13.7]]]}},{"type":"Feature","properties":{"zone":"Moderate","zone_code":"MODERATE","country":"Cambodia","region":"Cambodia_Moderate_NW","pga_range":"0.05\u20130.15g","return_period_yr":"475","source":"GEM OpenQuake SEA PSHA v2018.1","color":"#FFD700"},"geometry":{"type":"Polygon","coordinates":[[[102.3,12.5],[102.3,13.7],[102.0,13.7],[102.0,14.0],[102.5,14.5],[102.5,14.7],[103.1,14.7],[103.1,14.3],[102.5,13.5],[102.5,12.5],[102.3,12.5]]]}},{"type":"Feature","properties":{"zone":"Moderate","zone_code":"MODERATE","country":"Cambodia","region":"Cambodia_Moderate_SW","pga_range":"0.05\u20130.15g","return_period_yr":"475","source":"GEM OpenQuake SEA PSHA v2018.1","color":"#FFD700"},"geometry":{"type":"Polygon","coordinates":[[[102.3,10.8],[102.3,11.5],[102.5,11.0],[103.0,10.8],[103.5,10.5],[103.5,10.0],[102.5,10.0],[102.3,10.8]]]}},{"type":"Feature","properties":{"zone":"Low","zone_code":"LOW","country":"Thailand","region":"Thailand_Low_Central","pga_range":"<0.05g","return_period_yr":"475","source":"GEM OpenQuake SEA PSHA v2018.1","color":"#00BFFF"},"geometry":{"type":"Polygon","coordinates":[[[99.5,13.5],[99.5,15.5],[100.0,16.5],[100.5,17.0],[101.0,17.5],[101.5,17.5],[102.0,17.5],[102.5,17.5],[102.5,16.5],[102.5,15.5],[102.5,14.5],[102.0,14.0],[101.5,13.5],[101.0,13.0],[100.5,13.0],[100.0,13.0],[99.5,13.5]]]}},{"type":"Feature","properties":{"zone":"Low","zone_code":"LOW","country":"Thailand","region":"Thailand_Low_South_Gulf","pga_range":"<0.05g","return_period_yr":"475","source":"GEM OpenQuake SEA PSHA v2018.1","color":"#00BFFF"},"geometry":{"type":"Polygon","coordinates":[[[99.5,7.5],[99.5,9.0],[100.0,10.0],[100.5,11.0],[101.0,12.0],[101.5,12.5],[102.0,12.5],[102.3,12.0],[102.0,11.0],[101.5,10.0],[101.0,9.0],[100.5,8.0],[100.0,7.5],[99.5,7.5]]]}},{"type":"Feature","properties":{"zone":"Moderate","zone_code":"MODERATE","country":"Thailand","region":"Thailand_Moderate_North","pga_range":"0.05\u20130.15g","return_period_yr":"475","source":"GEM OpenQuake SEA PSHA v2018.1","color":"#FFD700"},"geometry":{"type":"Polygon","coordinates":[[[98.5,18.0],[98.5,19.5],[99.0,20.0],[99.5,20.5],[100.0,20.5],[100.5,20.5],[101.0,20.5],[101.5,20.0],[102.0,18.5],[101.5,18.0],[101.0,17.5],[100.5,17.0],[100.0,16.5],[99.5,15.5],[99.0,15.5],[98.5,16.0],[98.5,18.0]]]}},{"type":"Feature","properties":{"zone":"High","zone_code":"HIGH","country":"Thailand","region":"Thailand_High_NW","pga_range":"0.15\u20130.30g","return_period_yr":"475","source":"GEM OpenQuake SEA PSHA v2018.1","color":"#FF8C00"},"geometry":{"type":"Polygon","coordinates":[[[99.0,20.0],[98.5,20.0],[98.0,20.5],[98.5,21.0],[99.5,21.0],[100.5,21.0],[100.5,20.5],[100.0,20.5],[99.5,20.5],[99.0,20.0]]]}},{"type":"Feature","properties":{"zone":"Very High","zone_code":"VERY_HIGH","country":"Thailand","region":"Thailand_Very_High_West","pga_range":">0.30g","return_period_yr":"475","source":"GEM OpenQuake SEA PSHA v2018.1","color":"#DC143C"},"geometry":{"type":"Polygon","coordinates":[[[98.0,7.5],[97.5,8.0],[97.5,9.5],[98.0,10.5],[98.5,11.0],[98.5,10.0],[98.0,9.0],[98.0,8.0],[98.0,7.5]]]}},{"type":"Feature","properties":{"zone":"High","zone_code":"HIGH","country":"Thailand","region":"Thailand_High_West","pga_range":"0.15\u20130.30g","return_period_yr":"475","source":"GEM OpenQuake SEA PSHA v2018.1","color":"#FF8C00"},"geometry":{"type":"Polygon","coordinates":[[[98.5,7.5],[98.5,10.0],[99.0,11.0],[99.5,12.0],[99.5,13.5],[99.0,13.5],[98.5,12.5],[98.0,11.0],[98.0,10.5],[97.5,9.5],[97.5,8.0],[98.0,7.5],[98.5,7.5]]]}},{"type":"Feature","properties":{"zone":"Very High","zone_code":"VERY_HIGH","country":"Indonesia","region":"Sumatra_VeryHigh_West","pga_range":">0.30g","return_period_yr":"475","source":"GEM OpenQuake SEA PSHA v2018.1","color":"#DC143C"},"geometry":{"type":"Polygon","coordinates":[[[96.0,5.5],[95.0,4.5],[94.0,3.0],[93.0,2.0],[96.5,1.5],[97.5,0.5],[98.5,-1.0],[99.5,-2.0],[100.5,-3.0],[102.0,-4.0],[103.5,-5.0],[104.5,-5.5],[105.0,-5.0],[104.0,-4.0],[103.0,-3.0],[101.5,-1.5],[100.0,-0.5],[98.5,0.5],[97.5,1.5],[96.5,3.0],[96.0,5.5]]]}},{"type":"Feature","properties":{"zone":"High","zone_code":"HIGH","country":"Indonesia","region":"Sumatra_High_East","pga_range":"0.15\u20130.30g","return_period_yr":"475","source":"GEM OpenQuake SEA PSHA v2018.1","color":"#FF8C00"},"geometry":{"type":"Polygon","coordinates":[[[98.5,1.5],[98.5,3.0],[99.5,4.0],[100.5,4.5],[101.5,5.0],[102.5,4.5],[103.5,3.5],[104.0,2.5],[105.0,1.5],[105.5,0.5],[106.0,-0.5],[106.5,-1.5],[107.0,-2.5],[107.0,-3.5],[106.5,-4.0],[105.5,-4.0],[104.5,-4.0],[104.0,-4.0],[102.0,-4.0],[100.5,-3.0],[99.5,-2.0],[98.5,-1.0],[97.5,0.5],[98.5,1.5]]]}},{"type":"Feature","properties":{"zone":"Very High","zone_code":"VERY_HIGH","country":"Indonesia","region":"Java_VeryHigh_South","pga_range":">0.30g","return_period_yr":"475","source":"GEM OpenQuake SEA PSHA v2018.1","color":"#DC143C"},"geometry":{"type":"Polygon","coordinates":[[[107.0,-7.0],[107.5,-7.5],[108.5,-7.5],[109.5,-7.5],[110.5,-7.5],[111.5,-8.0],[112.5,-8.0],[113.0,-8.2],[114.0,-8.5],[114.5,-8.5],[114.5,-7.5],[113.5,-7.0],[112.5,-7.0],[111.5,-7.0],[110.5,-7.0],[109.5,-7.0],[108.5,-7.0],[107.5,-7.0],[107.0,-7.0]]]}},{"type":"Feature","properties":{"zone":"High","zone_code":"HIGH","country":"Indonesia","region":"Java_High_North","pga_range":"0.15\u20130.30g","return_period_yr":"475","source":"GEM OpenQuake SEA PSHA v2018.1","color":"#FF8C00"},"geometry":{"type":"Polygon","coordinates":[[[110.0,-6.5],[110.5,-6.5],[111.5,-6.5],[112.5,-6.5],[113.5,-6.5],[114.5,-6.5],[114.5,-7.5],[113.0,-7.0],[112.0,-7.0],[111.0,-7.0],[110.0,-6.5]]]}},{"type":"Feature","properties":{"zone":"Very High","zone_code":"VERY_HIGH","country":"Indonesia","region":"Bali_Lombok_VeryHigh","pga_range":">0.30g","return_period_yr":"475","source":"GEM OpenQuake SEA PSHA v2018.1","color":"#DC143C"},"geometry":{"type":"Polygon","coordinates":[[[115.0,-8.0],[115.0,-9.0],[116.0,-9.0],[117.0,-8.5],[117.5,-8.0],[117.0,-7.5],[116.0,-7.5],[115.0,-8.0]]]}},{"type":"Feature","properties":{"zone":"Very High","zone_code":"VERY_HIGH","country":"Indonesia","region":"Sulawesi_Very_High","pga_range":">0.30g","return_period_yr":"475","source":"GEM OpenQuake SEA PSHA v2018.1","color":"#DC143C"},"geometry":{"type":"Polygon","coordinates":[[[120.0,-4.0],[120.0,-2.0],[121.0,-0.5],[121.5,0.5],[122.5,1.0],[123.0,0.5],[124.0,0.5],[124.5,1.0],[125.0,1.5],[125.5,1.0],[125.0,0.0],[124.0,-1.0],[123.5,-2.0],[122.5,-3.0],[122.0,-4.0],[121.0,-4.5],[120.5,-4.0],[120.0,-4.0]]]}},{"type":"Feature","properties":{"zone":"High","zone_code":"HIGH","country":"Indonesia","region":"Sulawesi_High_East","pga_range":"0.15\u20130.30g","return_period_yr":"475","source":"GEM OpenQuake SEA PSHA v2018.1","color":"#FF8C00"},"geometry":{"type":"Polygon","coordinates":[[[122.0,-4.0],[122.5,-3.0],[123.5,-2.0],[124.0,-1.0],[125.0,0.0],[125.5,1.0],[126.0,1.5],[127.0,1.5],[128.0,1.5],[128.5,1.0],[127.5,0.5],[127.0,0.0],[126.5,-0.5],[126.0,-1.5],[125.5,-3.0],[125.0,-4.0],[124.0,-4.5],[123.0,-4.5],[122.0,-4.0]]]}},{"type":"Feature","properties":{"zone":"Low","zone_code":"LOW","country":"Indonesia","region":"Kalimantan_Low","pga_range":"<0.05g","return_period_yr":"475","source":"GEM OpenQuake SEA PSHA v2018.1","color":"#00BFFF"},"geometry":{"type":"Polygon","coordinates":[[[109.0,1.5],[110.0,2.0],[111.0,2.5],[112.0,2.5],[113.0,2.5],[114.5,3.5],[115.5,4.0],[116.5,4.5],[117.0,4.0],[117.0,3.0],[117.0,2.0],[117.0,1.0],[117.0,0.0],[117.0,-1.0],[116.5,-2.0],[115.5,-2.5],[114.5,-3.5],[113.0,-4.0],[111.5,-4.0],[110.0,-3.5],[109.0,-2.5],[108.5,-1.5],[108.5,-0.5],[109.0,1.5]]]}},{"type":"Feature","properties":{"zone":"Moderate","zone_code":"MODERATE","country":"Indonesia","region":"Kalimantan_Moderate_East","pga_range":"0.05\u20130.15g","return_period_yr":"475","source":"GEM OpenQuake SEA PSHA v2018.1","color":"#FFD700"},"geometry":{"type":"Polygon","coordinates":[[[117.0,0.0],[117.0,1.0],[117.5,2.0],[118.0,3.0],[118.5,4.0],[119.0,4.0],[119.0,3.0],[118.5,2.0],[118.0,1.0],[118.0,0.0],[117.5,-1.0],[117.0,-1.0],[117.0,0.0]]]}},{"type":"Feature","properties":{"zone":"Very High","zone_code":"VERY_HIGH","country":"Indonesia","region":"Papua_Very_High","pga_range":">0.30g","return_period_yr":"475","source":"GEM OpenQuake SEA PSHA v2018.1","color":"#DC143C"},"geometry":{"type":"Polygon","coordinates":[[[134.0,-1.0],[135.0,-1.5],[136.0,-1.5],[137.0,-2.0],[138.0,-3.0],[139.0,-4.0],[140.0,-5.0],[141.0,-6.0],[141.0,-8.0],[140.0,-7.0],[139.0,-6.0],[138.0,-5.0],[137.0,-4.0],[136.0,-3.0],[135.0,-2.0],[134.0,-1.0]]]}},{"type":"Feature","properties":{"zone":"Very High","zone_code":"VERY_HIGH","country":"Indonesia","region":"Maluku_Very_High","pga_range":">0.30g","return_period_yr":"475","source":"GEM OpenQuake SEA PSHA v2018.1","color":"#DC143C"},"geometry":{"type":"Polygon","coordinates":[[[127.0,-3.0],[127.5,-2.5],[128.0,-2.0],[128.5,-1.5],[129.0,-1.0],[129.5,-0.5],[130.0,-0.5],[130.5,-1.0],[130.0,-2.0],[129.5,-3.0],[129.0,-4.0],[128.0,-4.0],[127.0,-3.0]]]}}]}